GSAT0233 (GALILEO 33)   
1 67160U 25302A   26138.89929920  .00000019  00000+0  00000+0 0  9998
2 67160  54.3182 102.9642 0001581 248.0002 293.8232  1.70474069  2627
GSAT0234 (GALILEO 34)   
1 67162U 25302C   26137.43565288  .00000025  00000+0  00000+0 0  9999
2 67162  54.3177 103.0056 0003677 300.8975 242.7550  1.70474094  2655
